{
  "type": "FeatureCollection",
  "features": [
    {
      "type": "Feature",
      "properties": {
        "norad_id": 66460,
        "name": "STARLINK-35424",
        "group": "last-30-days",
        "lat": -36.21870572374767,
        "lon": -50.01939856942774,
        "alt_km": 446.28324613549194,
        "timestamp": "2025-12-11T13:55:00.913039+00:00",
        "meta_object_name": "STARLINK-35424",
        "meta_object_id": "2025-262E",
        "meta_epoch": "2025-12-11T06:00:02.999808",
        "meta_mean_motion": 15.40676642,
        "meta_eccentricity": 0.00014287,
        "meta_inclination": 43.0001,
        "meta_ra_of_asc_node": 80.0733,
        "meta_arg_of_pericenter": 260.5798,
        "meta_mean_anomaly": 307.8662,
        "meta_ephemeris_type": 0,
        "meta_classification_type": "U",
        "meta_norad_cat_id": 66460,
        "meta_element_set_no": 999,
        "meta_rev_at_epoch": 539,
        "meta_bstar": -3.2430047e-05,
        "meta_mean_motion_dot": -1.657e-05,
        "meta_mean_motion_ddot": 0,
        "tle_line1": "1 66460U 25262E   25345.25003472 -.00001657  00000+0 -32430-4 0  9997",
        "tle_line2": "2 66460  43.0001  80.0733 0001428 260.5798 307.8662 15.40676642  5395"
      },
      "geometry": {
        "type": "Point",
        "coordinates": [
          -50.01939856942774,
          -36.21870572374767
        ]
      }
    },
    {
      "type": "Feature",
      "properties": {
        "norad_id": 66461,
        "name": "STARLINK-35132",
        "group": "last-30-days",
        "lat": -40.557898526280546,
        "lon": -35.16341433284922,
        "alt_km": 446.4402038461976,
        "timestamp": "2025-12-11T13:55:00.913052+00:00",
        "meta_object_name": "STARLINK-35132",
        "meta_object_id": "2025-262F",
        "meta_epoch": "2025-12-11T06:00:02.999808",
        "meta_mean_motion": 15.40679736,
        "meta_eccentricity": 0.00014986,
        "meta_inclination": 43.0001,
        "meta_ra_of_asc_node": 80.0425,
        "meta_arg_of_pericenter": 270.6507,
        "meta_mean_anomaly": 310.243,
        "meta_ephemeris_type": 0,
        "meta_classification_type": "U",
        "meta_norad_cat_id": 66461,
        "meta_element_set_no": 999,
        "meta_rev_at_epoch": 539,
        "meta_bstar": -0.00027843354,
        "meta_mean_motion_dot": -0.00011908,
        "meta_mean_motion_ddot": 0,
        "tle_line1": "1 66461U 25262F   25345.25003472 -.00011908  00000+0 -27843-3 0  9999",
        "tle_line2": "2 66461  43.0001  80.0425 0001498 270.6507 310.2430 15.40679736  5399"
      },
      "geometry": {
        "type": "Point",
        "coordinates": [
          -35.16341433284922,
          -40.557898526280546
        ]
      }
    },
    {
      "type": "Feature",
      "properties": {
        "norad_id": 66462,
        "name": "STARLINK-35499",
        "group": "last-30-days",
        "lat": -42.785154688699926,
        "lon": -18.574311663191768,
        "alt_km": 446.60684571519505,
        "timestamp": "2025-12-11T13:55:00.913063+00:00",
        "meta_object_name": "STARLINK-35499",
        "meta_object_id": "2025-262G",
        "meta_epoch": "2025-12-11T06:00:02.999808",
        "meta_mean_motion": 15.40998693,
        "meta_eccentricity": 0.00014321,
        "meta_inclination": 43.0003,
        "meta_ra_of_asc_node": 80.0117,
        "meta_arg_of_pericenter": 268.782,
        "meta_mean_anomaly": 324.5572,
        "meta_ephemeris_type": 0,
        "meta_classification_type": "U",
        "meta_norad_cat_id": 66462,
        "meta_element_set_no": 999,
        "meta_rev_at_epoch": 539,
        "meta_bstar": -0.013520009,
        "meta_mean_motion_dot": -0.00532615,
        "meta_mean_motion_ddot": 0,
        "tle_line1": "1 66462U 25262G   25345.25003472 -.00532615  00000+0 -13520-1 0  9998",
        "tle_line2": "2 66462  43.0003  80.0117 0001432 268.7820 324.5572 15.40998693  5395"
      },
      "geometry": {
        "type": "Point",
        "coordinates": [
          -18.574311663191768,
          -42.785154688699926
        ]
      }
    },
    {
      "type": "Feature",
      "properties": {
        "norad_id": 66463,
        "name": "STARLINK-35463",
        "group": "last-30-days",
        "lat": -39.908179599132545,
        "lon": 14.217304519367584,
        "alt_km": 446.8752686069056,
        "timestamp": "2025-12-11T13:55:00.913074+00:00",
        "meta_object_name": "STARLINK-35463",
        "meta_object_id": "2025-262H",
        "meta_epoch": "2025-12-11T06:00:02.999808",
        "meta_mean_motion": 15.40512664,
        "meta_eccentricity": 0.00016649,
        "meta_inclination": 43.0008,
        "meta_ra_of_asc_node": 79.9508,
        "meta_arg_of_pericenter": 238.1125,
        "meta_mean_anomaly": 20.2304,
        "meta_ephemeris_type": 0,
        "meta_classification_type": "U",
        "meta_norad_cat_id": 66463,
        "meta_element_set_no": 999,
        "meta_rev_at_epoch": 539,
        "meta_bstar": 0.0029015702,
        "meta_mean_motion_dot": 0.00122099,
        "meta_mean_motion_ddot": 0,
        "tle_line1": "1 66463U 25262H   25345.25003472  .00122099  00000+0  29016-2 0  9996",
        "tle_line2": "2 66463  43.0008  79.9508 0001664 238.1125  20.2304 15.40512664  5391"
      },
      "geometry": {
        "type": "Point",
        "coordinates": [
          14.217304519367584,
          -39.908179599132545
        ]
      }
    },
    {
      "type": "Feature",
      "properties": {
        "norad_id": 66464,
        "name": "STARLINK-35435",
        "group": "last-30-days",
        "lat": -42.540677551686606,
        "lon": -1.8926131828785941,
        "alt_km": 446.28088109097916,
        "timestamp": "2025-12-11T13:55:00.913085+00:00",
        "meta_object_name": "STARLINK-35435",
        "meta_object_id": "2025-262J",
        "meta_epoch": "2025-12-11T06:00:02.999808",
        "meta_mean_motion": 15.40681288,
        "meta_eccentricity": 0.0001742,
        "meta_inclination": 43.0005,
        "meta_ra_of_asc_node": 79.982,
        "meta_arg_of_pericenter": 273.4765,
        "meta_mean_anomaly": 332.3087,
        "meta_ephemeris_type": 0,
        "meta_classification_type": "U",
        "meta_norad_cat_id": 66464,
        "meta_element_set_no": 999,
        "meta_rev_at_epoch": 539,
        "meta_bstar": -0.00017323154,
        "meta_mean_motion_dot": -7.528e-05,
        "meta_mean_motion_ddot": 0,
        "tle_line1": "1 66464U 25262J   25345.25003472 -.00007528  00000+0 -17323-3 0  9997",
        "tle_line2": "2 66464  43.0005  79.9820 0001742 273.4765 332.3087 15.40681288  5399"
      },
      "geometry": {
        "type": "Point",
        "coordinates": [
          -1.8926131828785941,
          -42.540677551686606
        ]
      }
    },
    {
      "type": "Feature",
      "properties": {
        "norad_id": 66465,
        "name": "STARLINK-35448",
        "group": "last-30-days",
        "lat": -29.038023864811425,
        "lon": 41.42233232961475,
        "alt_km": 445.62627874763984,
        "timestamp": "2025-12-11T13:55:00.913095+00:00",
        "meta_object_name": "STARLINK-35448",
        "meta_object_id": "2025-262K",
        "meta_epoch": "2025-12-11T06:00:02.999808",
        "meta_mean_motion": 15.40589553,
        "meta_eccentricity": 0.00018813,
        "meta_inclination": 43.0005,
        "meta_ra_of_asc_node": 79.8906,
        "meta_arg_of_pericenter": 281.8126,
        "meta_mean_anomaly": 1.2939,
        "meta_ephemeris_type": 0,
        "meta_classification_type": "U",
        "meta_norad_cat_id": 66465,
        "meta_element_set_no": 999,
        "meta_rev_at_epoch": 539,
        "meta_bstar": 0.0036602634,
        "meta_mean_motion_dot": 0.00155175,
        "meta_mean_motion_ddot": 0,
        "tle_line1": "1 66465U 25262K   25345.25003472  .00155175  00000+0  36603-2 0  9999",
        "tle_line2": "2 66465  43.0005  79.8906 0001881 281.8126   1.2939 15.40589553  5392"
      },
      "geometry": {
        "type": "Point",
        "coordinates": [
          41.42233232961475,
          -29.038023864811425
        ]
      }
    },
    {
      "type": "Feature",
      "properties": {
        "norad_id": 66466,
        "name": "STARLINK-35388",
        "group": "last-30-days",
        "lat": -21.711324184461386,
        "lon": 52.662435864716215,
        "alt_km": 446.0378314716081,
        "timestamp": "2025-12-11T13:55:00.913106+00:00",
        "meta_object_name": "STARLINK-35388",
        "meta_object_id": "2025-262L",
        "meta_epoch": "2025-12-11T06:00:02.999808",
        "meta_mean_motion": 15.41858248,
        "meta_eccentricity": 8.936e-05,
        "meta_inclination": 43.0007,
        "meta_ra_of_asc_node": 79.8606,
        "meta_arg_of_pericenter": 248.3686,
        "meta_mean_anomaly": 46.5371,
        "meta_ephemeris_type": 0,
        "meta_classification_type": "U",
        "meta_norad_cat_id": 66466,
        "meta_element_set_no": 999,
        "meta_rev_at_epoch": 539,
        "meta_bstar": -0.041958045,
        "meta_mean_motion_dot": -0.01630687,
        "meta_mean_motion_ddot": 0,
        "tle_line1": "1 66466U 25262L   25345.25003472 -.01630687  00000+0 -41958-1 0  9997",
        "tle_line2": "2 66466  43.0007  79.8606 0000893 248.3686  46.5371 15.41858248  5396"
      },
      "geometry": {
        "type": "Point",
        "coordinates": [
          52.662435864716215,
          -21.711324184461386
        ]
      }
    }
  ]
}